{
    "links": {
        "self": "http://www.neowsapp.com/rest/v1/neo/3423604?api_key=iIulBulltgU6a56xZRHN4H3l9WmuAYTsLGpBGhQ2"
    },
    "id": "3423604",
    "neo_reference_id": "3423604",
    "name": "(2008 PG7)",
    "designation": "2008 PG7",
    "nasa_jpl_url": "http://ssd.jpl.nasa.gov/sbdb.cgi?sstr=3423604",
    "absolute_magnitude_h": 21.6,
    "estimated_diameter": {
        "kilometers": {
            "estimated_diameter_min": 0.1272198785,
            "estimated_diameter_max": 0.2844722965
        },
        "meters": {
            "estimated_diameter_min": 127.2198785394,
            "estimated_diameter_max": 284.4722965033
        },
        "miles": {
            "estimated_diameter_min": 0.0790507431,
            "estimated_diameter_max": 0.1767628354
        },
        "feet": {
            "estimated_diameter_min": 417.3880663071,
            "estimated_diameter_max": 933.3080892598
        }
    },
    "is_potentially_hazardous_asteroid": false,
    "close_approach_data": [
        {
            "close_approach_date": "2008-08-15",
            "close_approach_date_full": "2008-Aug-15 23:42",
            "epoch_date_close_approach": 1218843720000,
            "relative_velocity": {
                "kilometers_per_second": "21.2474150728",
                "kilometers_per_hour": "76490.6942621934",
                "miles_per_hour": "47528.3427764168"
            },
            "miss_distance": {
                "astronomical": "0.1694045008",
                "lunar": "65.8983508112",
                "kilometers": "25342552.488093296",
                "miles": "15747131.9118916448"
            },
            "orbiting_body": "Earth"
        },
        {
            "close_approach_date": "2009-01-23",
            "close_approach_date_full": "2009-Jan-23 22:35",
            "epoch_date_close_approach": 1232750100000,
            "relative_velocity": {
                "kilometers_per_second": "20.5527025775",
                "kilometers_per_hour": "73989.7292789042",
                "miles_per_hour": "45974.3403955502"
            },
            "miss_distance": {
                "astronomical": "0.4022460233",
                "lunar": "156.4737030637",
                "kilometers": "60175148.301650371",
                "miles": "37391103.3061462798"
            },
            "orbiting_body": "Earth"
        }
    ],
    "orbital_data": {
        "orbit_id": "10",
        "orbit_determination_date": "2017-04-06 09:03:07",
        "first_observation_date": "2008-08-06",
        "last_observation_date": "2008-08-12",
        "data_arc_in_days": 6,
        "observations_used": 48,
        "orbit_uncertainty": "9",
        "minimum_orbit_intersection": ".163593",
        "jupiter_tisserand_invariant": "4.174",
        "epoch_osculation": "2454686.5",
        "eccentricity": ".3687044544835895",
        "semi_major_axis": "1.531154459308081",
        "inclination": "39.76206294206094",
        "ascending_node_longitude": "137.900967742593",
        "orbital_period": "692.03320336314",
        "perihelion_distance": ".9666109896587793",
        "perihelion_argument": "253.4980227332488",
        "aphelion_distance": "2.095697928957382",
        "perihelion_time": "2454759.502812994734",
        "mean_anomaly": "322.0234801590677",
        "mean_motion": ".5202062534723385",
        "equinox": "J2000",
        "orbit_class": {
            "orbit_class_type": "APO",
            "orbit_class_description": "Near-Earth asteroid orbits which cross the Earth’s orbit similar to that of 1862 Apollo",
            "orbit_class_range": "a (semi-major axis) > 1.0 AU; q (perihelion) < 1.017 AU"
        }
    },
    "is_sentry_object": false
}